ONEWEB-0279             
1 48997U 21060AG  23059.11397487  .00000098  00000+0  22315-3 0  9997
2 48997  87.9006 108.7472 0001848  99.2619 260.8721 13.16594379 82357
ONEWEB-0279             
1 48997U 21060AG  23059.56995591  .00000041  00000+0  74698-4 0  9996
2 48997  87.9007 108.6563 0001846  99.0348 261.0992 13.16595160 81118
ONEWEB-0279             
1 48997U 21060AG  23059.87394383  .00000041  00000+0  72829-4 0  9996
2 48997  87.9005 108.5956 0001843  99.0493 261.0847 13.16594664 81150
ONEWEB-0279             
1 48997U 21060AG  23060.17793150 -.00000003  00000+0 -42009-4 0  9993
2 48997  87.9004 108.5351 0001865  98.2733 261.8610 13.16594942 82493
ONEWEB-0279             
1 48997U 21060AG  23060.86190418 -.00000003  00000+0 -42685-4 0  9997
2 48997  87.9002 108.3987 0001863  97.4787 262.6556 13.16594358 81287
ONEWEB-0279             
1 48997U 21060AG  23061.62187311 -.00000017  00000+0 -76860-4 0  9997
2 48997  87.9001 108.2470 0001865  97.3334 262.8009 13.16594728 81388
ONEWEB-0279             
1 48997U 21060AG  23062.15385125  .00000002  00000+0 -28017-4 0  9993
2 48997  87.9001 108.1409 0001870  97.0567 263.0777 13.16595226 81457
ONEWEB-0279             
1 48997U 21060AG  23062.15385125  .00000002  00000+0 -28017-4 0  9993
2 48997  87.9001 108.1409 0001870  97.0567 263.0777 13.16595226 82751
ONEWEB-0279             
1 48997U 21060AG  23062.83782359  .00000017  00000+0  11499-4 0  9999
2 48997  87.8999 108.0040 0001859  97.4150 262.7192 13.16595191 81549
